{
    "links": {
        "self": "http://www.neowsapp.com/rest/v1/neo/3802004?api_key=iIulBulltgU6a56xZRHN4H3l9WmuAYTsLGpBGhQ2"
    },
    "id": "3802004",
    "neo_reference_id": "3802004",
    "name": "(2018 FW1)",
    "designation": "2018 FW1",
    "nasa_jpl_url": "http://ssd.jpl.nasa.gov/sbdb.cgi?sstr=3802004",
    "absolute_magnitude_h": 25.0,
    "estimated_diameter": {
        "kilometers": {
            "estimated_diameter_min": 0.02658,
            "estimated_diameter_max": 0.0594346868
        },
        "meters": {
            "estimated_diameter_min": 26.58,
            "estimated_diameter_max": 59.4346868419
        },
        "miles": {
            "estimated_diameter_min": 0.0165160412,
            "estimated_diameter_max": 0.0369309908
        },
        "feet": {
            "estimated_diameter_min": 87.2047272,
            "estimated_diameter_max": 194.9956979785
        }
    },
    "is_potentially_hazardous_asteroid": false,
    "close_approach_data": [
        {
            "close_approach_date": "2018-03-24",
            "close_approach_date_full": "2018-Mar-24 18:49",
            "epoch_date_close_approach": 1521917340000,
            "relative_velocity": {
                "kilometers_per_second": "7.3349562909",
                "kilometers_per_hour": "26405.8426471987",
                "miles_per_hour": "16407.5637270886"
            },
            "miss_distance": {
                "astronomical": "0.0236521523",
                "lunar": "9.2006872447",
                "kilometers": "3538311.604995601",
                "miles": "2198604.8806812538"
            },
            "orbiting_body": "Earth"
        }
    ],
    "orbital_data": {
        "orbit_id": "8",
        "orbit_determination_date": "2020-09-11 07:38:59",
        "first_observation_date": "2018-03-09",
        "last_observation_date": "2018-03-29",
        "data_arc_in_days": 20,
        "observations_used": 69,
        "orbit_uncertainty": "7",
        "minimum_orbit_intersection": ".015533",
        "jupiter_tisserand_invariant": "3.499",
        "epoch_osculation": "2459000.5",
        "eccentricity": ".5306689360671359",
        "semi_major_axis": "2.161754405259252",
        "inclination": "2.56390253415065",
        "ascending_node_longitude": "186.2878689281061",
        "orbital_period": "1160.93513715819",
        "perihelion_distance": "1.01457849498188",
        "perihelion_argument": "7.613676386244053",
        "aphelion_distance": "3.308930315536623",
        "perihelion_time": "2459370.944565489828",
        "mean_anomaly": "245.1270503339357",
        "mean_motion": ".3100948437836333",
        "equinox": "J2000",
        "orbit_class": {
            "orbit_class_type": "APO",
            "orbit_class_description": "Near-Earth asteroid orbits which cross the Earth’s orbit similar to that of 1862 Apollo",
            "orbit_class_range": "a (semi-major axis) > 1.0 AU; q (perihelion) < 1.017 AU"
        }
    },
    "is_sentry_object": false
}